[{"OBJECT_NAME":"CUBESX-HSE 3 (RS42S)","OBJECT_ID":"2023-091N","EPOCH":"2026-03-09T22:57:25.321248","MEAN_MOTION":15.286147,"ECCENTRICITY":0.00127191,"INCLINATION":97.5203,"RA_OF_ASC_NODE":133.4295,"ARG_OF_PERICENTER":86.5376,"MEAN_ANOMALY":273.7318,"EPHEMERIS_TYPE":0,"CLASSIFICATION_TYPE":"U","NORAD_CAT_ID":57178,"ELEMENT_SET_NO":999,"REV_AT_EPOCH":14925,"BSTAR":0.00059055694,"MEAN_MOTION_DOT":0.00016417,"MEAN_MOTION_DDOT":0},{"OBJECT_NAME":"STARLINK-35376","OBJECT_ID":"2025-232P","EPOCH":"2026-03-09T12:10:11.609184","MEAN_MOTION":15.30193815,"ECCENTRICITY":0.00013059,"INCLINATION":53.1587,"RA_OF_ASC_NODE":105.0347,"ARG_OF_PERICENTER":91.242,"MEAN_ANOMALY":268.873,"EPHEMERIS_TYPE":0,"CLASSIFICATION_TYPE":"U","NORAD_CAT_ID":66018,"ELEMENT_SET_NO":999,"REV_AT_EPOCH":2340,"BSTAR":0.0010102205,"MEAN_MOTION_DOT":0.00029674,"MEAN_MOTION_DDOT":0}]
